level,name,zipcode,grade_k,grade_1,grade_2,grade_3,grade_4,grade_5,grade_6,grade_7,grade_8,grade_9,grade_10,grade_11,grade_12,native_amer,asian,black,hisp,p_islander,white,male,female,econ_disadv,disabled,limited_eng,lat,lng
Elementary School,A. Z. Kelley Elementary,37013,153.0,145.0,149.0,180.0,184.0,,,,,,,,,1.0,113.0,319,206,1.0,212.0,431,421,261,75.0,298.0,36.021817118099996,-86.6588477794
Elementary School,Alex Green Elementary,37189,42.0,50.0,44.0,38.0,24.0,,,,,,,,,,,183,29,1.0,21.0,115,119,153,21.0,25.0,36.2529606982,-86.8322291988
Elementary School,Amqui Elementary,37115,84.0,93.0,77.0,87.0,84.0,,,,,,,,,1.0,3.0,187,209,1.0,57.0,223,235,246,51.0,143.0,36.2737658523,-86.7038315283
Elementary School,Andrew Jackson Elementary,37138,95.0,93.0,85.0,88.0,103.0,,,,,,,,,1.0,21.0,150,66,2.0,256.0,258,238,122,64.0,32.0,36.2315846536,-86.6237746868
High School,Antioch High School,37013,,,,,,,,,,499.0,486.0,482.0,448.0,1.0,78.0,642,806,1.0,387.0,1026,889,622,185.0,634.0,36.0466746426,-86.5994183274
Middle School,Antioch Middle,37013,,,,,,97.0,251.0,255.0,217.0,,,,,2.0,65.0,239,407,3.0,104.0,413,407,391,105.0,415.0,36.0553789673,-86.67182988559999
Middle School,Apollo Middle,37013,,,,,,178.0,214.0,227.0,216.0,,,,,2.0,38.0,230,428,,137.0,421,414,340,97.0,417.0,36.0668779764,-86.6640697109
Middle School,Bellevue Middle,37221,,,,,,144.0,175.0,152.0,160.0,,,,,,23.0,222,85,1.0,300.0,328,303,211,93.0,67.0,36.0707487921,-86.9348203609
Elementary School,Bellshire Elementary,37207,60.0,62.0,52.0,44.0,65.0,,,,,,,,,,3.0,269,37,,33.0,167,175,232,43.0,35.0,36.2696876639,-86.76230026290001
Charter,Brick Church College Prep,37207,,,,,,85.0,81.0,95.0,78.0,,,,,2.0,2.0,281,42,,12.0,181,158,255,12.0,61.0,36.2207385771,-86.7817524484
Elementary School,Buena Vista Elementary,37208,30.0,25.0,36.0,38.0,41.0,,,,,,,,,,,189,5,,5.0,106,93,174,22.0,6.0,36.1777411585,-86.7981380508
Elementary School,Cambridge Early Learning Center,37013,,,,,,,,,,,,,,,5.0,73,21,,36.0,75,60,53,9.0,,36.0603500916,-86.64101743299999
Elementary School,Cane Ridge Elementary,37013,112.0,102.0,121.0,94.0,93.0,52.0,,,,,,,,1.0,22.0,303,145,1.0,137.0,311,298,265,40.0,223.0,36.039719665700005,-86.61815062790001
High School,Cane Ridge High School,37013,,,,,,,,,,474.0,449.0,513.0,422.0,2.0,133.0,752,655,3.0,313.0,980,878,635,190.0,573.0,36.0302884296,-86.621230214
Elementary School,Carter-Lawrence Elementary,37203,38.0,46.0,50.0,51.0,58.0,,,,,,,,,1.0,3.0,212,20,2.0,25.0,135,128,159,25.0,24.0,36.1436534419,-86.7858534926
Elementary School,Casa Azafran Early Learning Center,37211,,,,,,,,,,,,,,,12.0,17,39,1.0,22.0,53,38,16,9.0,,36.1265171601,-86.7533987496
Elementary School,Chadwell Elementary,37115,67.0,53.0,51.0,57.0,76.0,,,,,,,,,,3.0,174,113,,33.0,160,163,185,47.0,86.0,36.25637022,-86.7416710943
Elementary School,Charlotte Park Elementary,37209,92.0,90.0,91.0,97.0,101.0,,,,,,,,,,46.0,96,275,3.0,93.0,275,238,214,55.0,251.0,36.151245238899996,-86.88371354719999
Elementary School,Cockrill Elementary,37209,58.0,52.0,60.0,52.0,59.0,,,,,,,,,,4.0,158,118,,39.0,151,168,196,41.0,87.0,36.1562064576,-86.8451449272
Elementary School,Cole Elementary,37013,141.0,132.0,143.0,133.0,134.0,,,,,,,,,,90.0,75,481,2.0,113.0,400,361,332,56.0,417.0,36.0583352576,-86.6986202084
Special Education,Cora Howe School,37206,,,1.0,6.0,3.0,10.0,12.0,6.0,14.0,10.0,6.0,6.0,18.0,1.0,1.0,57,2,,31.0,76,16,46,88.0,6.0,36.1889302687,-86.73458329420001
Middle School,Creswell Middle School of the Arts,37218,,,,,,88.0,105.0,89.0,80.0,,,,,1.0,,320,11,,30.0,138,224,163,41.0,4.0,36.1960632171,-86.8375393872
Elementary School,Crieve Hall Elementary,37220,103.0,93.0,91.0,80.0,98.0,,,,,,,,,3.0,71.0,28,118,2.0,243.0,222,243,68,26.0,134.0,36.0657457496,-86.7581030533
Middle School,Croft Middle,37211,,,,,,174.0,214.0,189.0,173.0,,,,,,22.0,141,379,1.0,207.0,387,363,262,80.0,332.0,36.087474942600004,-86.7341476906
Elementary School,Cumberland Elementary,37218,56.0,51.0,57.0,56.0,58.0,,,,,,,,,,1.0,220,29,2.0,26.0,142,136,212,25.0,18.0,36.212069099299995,-86.86656862299999
Elementary School,Dan Mills Elementary,37216,105.0,120.0,106.0,104.0,95.0,,,,,,,,,4.0,7.0,83,102,1.0,369.0,280,286,105,49.0,67.0,36.2186382608,-86.71708395270001
Elementary School,Dodson Elementary,37076,62.0,87.0,72.0,76.0,64.0,,,,,,,,,1.0,7.0,215,68,2.0,100.0,201,192,219,66.0,56.0,36.1909084815,-86.60331793120001
Middle School,Donelson Middle,37214,,,,,,189.0,193.0,213.0,180.0,,,,,1.0,12.0,361,152,2.0,247.0,382,393,369,112.0,142.0,36.1667225726,-86.656336234
Elementary School,Dupont Elementary,37138,62.0,63.0,60.0,64.0,71.0,,,,,,,,,,5.0,85,53,1.0,211.0,176,179,155,45.0,25.0,36.2613820968,-86.652625791
Middle School,Dupont-Hadley Middle,37138,,,,,,146.0,155.0,151.0,159.0,,,,,1.0,9.0,203,79,,319.0,322,289,194,92.0,47.0,36.2497784913,-86.6427891084
Middle School,Dupont-Tyler Middle,37076,,,,,,124.0,165.0,138.0,154.0,,,,,2.0,13.0,277,142,1.0,145.0,288,293,273,87.0,112.0,36.1996225114,-86.6125957599
Elementary School,Eagle View Elementary,37013,105.0,112.0,107.0,106.0,106.0,70.0,,,,,,,,3.0,21.0,350,192,1.0,95.0,343,319,275,65.0,232.0,,
Elementary School,Eakin Elementary,37212,110.0,117.0,96.0,115.0,105.0,,,,,,,,,1.0,58.0,185,34,,265.0,261,282,92,66.0,40.0,36.1351431922,-86.80760668459999
Charter,East End Preparatory School,37216,111.0,104.0,108.0,103.0,105.0,97.0,98.0,97.0,76.0,,,,,2.0,11.0,687,125,,74.0,416,483,413,87.0,47.0,36.2069950352,-86.7182717708
Middle School,East Nashville Middle,37206,,,,,,76.0,75.0,81.0,84.0,,,,,1.0,2.0,295,11,,7.0,150,166,178,33.0,5.0,36.188861645100005,-86.7332427155
High School,East Nashville School,37206,,,,,,,,19.0,23.0,153.0,164.0,167.0,175.0,1.0,5.0,658,13,,24.0,308,393,253,55.0,3.0,36.1806264426,-86.7504713705
Charter,Explore Community School,37206,97.0,88.0,82.0,88.0,75.0,,,,,,,,,1.0,3.0,237,21,,168.0,201,229,201,52.0,8.0,36.1743641454,-86.7516488877
Elementary School,Fall-Hamilton Elementary,37203,49.0,56.0,60.0,49.0,37.0,,,,,,,,,,2.0,193,69,1.0,47.0,172,140,170,63.0,43.0,36.1334718393,-86.7662062825
Elementary School,Gateway Elementary,37115,31.0,44.0,45.0,30.0,52.0,,,,,,,,,,3.0,72,82,1.0,44.0,98,104,109,18.0,63.0,36.2922088797,-86.71066017950001
Elementary School,Glencliff Elementary,37211,120.0,111.0,113.0,112.0,102.0,,,,,,,,,3.0,15.0,72,413,1.0,93.0,314,283,200,34.0,339.0,36.101625851,-86.7230998317
High School,Glencliff High School,37211,,,,,,,,,,349.0,309.0,332.0,177.0,,46.0,204,742,,175.0,655,512,439,104.0,621.0,36.101400683099996,-86.7274692859
Elementary School,Glendale Elementary,37204,96.0,92.0,80.0,73.0,73.0,,,,,,,,,,8.0,29,46,,359.0,233,209,11,30.0,8.0,36.0959359228,-86.7839065582
Elementary School,Glengarry Elementary,37217,67.0,92.0,66.0,82.0,81.0,,,,,,,,,,2.0,45,304,1.0,55.0,209,198,191,30.0,271.0,36.1103898927,-86.7064250194
Elementary School,Glenview Elementary,37217,135.0,111.0,101.0,116.0,117.0,,,,,,,,,2.0,2.0,90,433,,109.0,351,285,281,42.0,427.0,36.127570472600006,-86.7063679645
Elementary School,Goodlettsville Elementary,37072,68.0,64.0,56.0,65.0,67.0,,,,,,,,,6.0,16.0,133,88,4.0,107.0,186,168,135,47.0,61.0,36.3129393439,-86.7104870774
Middle School,Goodlettsville Middle,37072,,,,,,154.0,138.0,160.0,146.0,,,,,2.0,17.0,252,195,2.0,130.0,298,300,271,81.0,148.0,36.3181505215,-86.71246408729999
Elementary School,Gower Elementary,37209,126.0,108.0,90.0,113.0,124.0,,,,,,,,,1.0,51.0,161,95,,300.0,311,297,160,90.0,84.0,36.1153420518,-86.92228685100001
Middle School,Gra-Mar Middle,37216,,,,,,100.0,80.0,74.0,90.0,,,,,1.0,4.0,233,67,,39.0,199,145,222,60.0,81.0,36.2328428043,-86.7451605246
Elementary School,Granbery Elementary,37027,144.0,178.0,146.0,137.0,146.0,,,,,,,,,3.0,87.0,109,140,,412.0,390,361,137,64.0,153.0,36.0467903017,-86.753046003
Middle School,H.G. Hill Middle School,37205,,,,,,183.0,190.0,175.0,158.0,,,,,2.0,53.0,206,163,3.0,279.0,358,348,259,122.0,208.0,36.1163756827,-86.8667300076
Elementary School,Harpeth Valley Elementary,37221,146.0,127.0,152.0,136.0,123.0,,,,,,,,,1.0,50.0,86,41,6.0,516.0,356,344,66,69.0,36.0,36.0455259589,-86.9580499609
Special Education,Harris-Hillman Special Education,37212,1.0,1.0,7.0,2.0,5.0,5.0,5.0,4.0,4.0,7.0,5.0,4.0,93.0,,7.0,67,33,1.0,75.0,110,73,54,164.0,27.0,36.1375948541,-86.80760420979999
Elementary School,Hattie Cotton Elementary,37206,45.0,49.0,44.0,48.0,35.0,,,,,,,,,1.0,2.0,149,56,,31.0,126,113,136,26.0,42.0,36.1910704106,-86.74772151219999
Middle School,Haynes Middle,37207,,,,,,55.0,53.0,62.0,50.0,,,,,,,214,1,,5.0,118,102,164,46.0,,36.207640181799995,-86.7891140421
Elementary School,Haywood Elementary,37211,106.0,119.0,123.0,108.0,115.0,,,,,,,,,1.0,89.0,65,401,2.0,66.0,321,303,273,40.0,397.0,36.074169073,-86.708069174
Middle School,Head Middle,37203,,,,,,170.0,179.0,99.0,103.0,,,,,1.0,34.0,352,31,,133.0,286,265,124,31.0,43.0,36.1586049933,-86.8044055117
Elementary School,Henry C Maxwell Elementary,37013,112.0,99.0,103.0,126.0,116.0,,,,,,,,,,58.0,134,257,,161.0,335,275,212,59.0,238.0,36.0308340173,-86.67395212299999
Elementary School,Hermitage Elementary,37076,57.0,68.0,43.0,56.0,44.0,,,,,,,,,,6.0,77,69,1.0,146.0,153,146,115,43.0,42.0,36.1979902099,-86.6353701384
Elementary School,Hickman Elementary,37214,73.0,81.0,95.0,90.0,84.0,,,,,,,,,1.0,11.0,198,98,2.0,163.0,252,221,220,69.0,78.0,36.164979871599996,-86.65747883739999
High School,Hillsboro High,37215,,,,,,,,,2.0,314.0,319.0,280.0,252.0,2.0,42.0,596,75,1.0,451.0,597,570,313,165.0,42.0,36.1070656078,-86.8122291617
High School,Hillwood High,37205,,,,,,,,,,303.0,277.0,270.0,241.0,1.0,71.0,392,202,1.0,424.0,583,508,358,164.0,181.0,36.118806687399996,-86.87390019729999
Elementary School,Hull-Jackson Elementary,37208,70.0,61.0,55.0,32.0,64.0,,,,,,,,,6.0,7.0,374,19,,24.0,221,209,197,41.0,4.0,36.1903186918,-86.80717823280001
High School,Hume-Fogg High,37203,,,,,,,,,,231.0,224.0,226.0,220.0,3.0,100.0,196,68,,534.0,346,555,60,27.0,8.0,36.1595246071,-86.78153601700001
High School,Hunters Lane High,37207,,,,,,,,,,428.0,342.0,311.0,252.0,1.0,10.0,544,571,4.0,203.0,736,597,582,141.0,370.0,36.2788275473,-86.7538434982
Elementary School,Ida B. Wells Elementary,37207,50.0,44.0,52.0,56.0,41.0,,,,,,,,,1.0,,243,12,1.0,6.0,136,127,216,24.0,23.0,36.1783097577,-86.76900113399999
Elementary School,Inglewood Elementary,37216,34.0,39.0,39.0,44.0,33.0,,,,,,,,,,1.0,167,16,1.0,44.0,105,124,144,17.0,6.0,36.1978312773,-86.7238406355
Charter,Intrepid College Prep Charter,37013,,,,,,113.0,118.0,122.0,117.0,96.0,85.0,39.0,,,8.0,147,460,,75.0,348,342,198,57.0,358.0,36.0501591002,-86.6457200764
Middle School,Isaac Litton Middle,37216,,,,,,122.0,120.0,121.0,106.0,,,,,1.0,5.0,171,59,1.0,232.0,251,218,140,72.0,38.0,36.2282154457,-86.7221587445
Elementary School,Ivanetta H. Davis Learning Center at Bordeaux,37218,,,,,,,,,,,,,,,2.0,124,14,,22.0,103,59,77,37.0,,36.1915875124,-86.83263570700001
Elementary School,J.E. Moss Elementary,37013,120.0,149.0,185.0,120.0,142.0,,,,,,,,,1.0,66.0,99,513,,72.0,398,353,294,62.0,427.0,36.0673533812,-86.66974657879999
Middle School,Jere Baxter Middle,37207,,,,,,79.0,61.0,53.0,68.0,,,,,,1.0,135,78,,47.0,133,128,182,44.0,72.0,36.219028029200004,-86.7508830358
Elementary School,Joelton Elementary,37080,48.0,43.0,57.0,47.0,48.0,,,,,,,,,,3.0,41,21,,197.0,127,135,112,43.0,12.0,36.315679553,-86.86803980629999
Middle School,Joelton Middle,37080,,,,,,63.0,84.0,72.0,78.0,,,,,1.0,,206,26,,64.0,176,121,214,52.0,19.0,36.3138460672,-86.8657762415
Elementary School,John B. Whitsitt Elementary,37210,81.0,91.0,90.0,84.0,76.0,,,,,,,,,2.0,8.0,51,322,,67.0,222,228,211,38.0,238.0,36.1150448454,-86.73568455379998
Middle School,John Early Middle,37208,,,,,,74.0,67.0,78.0,83.0,,,,,,7.0,249,37,,9.0,163,139,230,50.0,34.0,36.1871534218,-86.8047130677
Middle School,John F. Kennedy Middle,37013,,,,,,185.0,224.0,216.0,217.0,,,,,2.0,18.0,345,319,1.0,157.0,416,426,316,75.0,353.0,36.0554667904,-86.6006047025
High School,John Overton High,37220,,,,,,,,,,589.0,494.0,557.0,430.0,1.0,164.0,414,882,4.0,605.0,1102,968,700,159.0,828.0,36.0797992685,-86.7689945134
Middle School,John Trotwood Moore Middle,37204,,,,,,184.0,213.0,175.0,181.0,,,,,1.0,24.0,216,34,1.0,477.0,421,332,162,103.0,28.0,36.0957722119,-86.801995019
Non-Traditional - Hybrid,Johnson Alternative Learning Center,37210,,,,,,1.0,8.0,13.0,27.0,19.0,39.0,32.0,16.0,,3.0,95,44,,13.0,103,52,96,28.0,31.0,36.1453908839,-86.7640144621
Elementary School,Jones Elementary,37208,31.0,40.0,44.0,45.0,46.0,,,,,,,,,,,201,5,,,102,104,105,24.0,1.0,36.181153731,-86.8013978855
Elementary School,Julia Green Elementary,37215,98.0,100.0,87.0,74.0,87.0,,,,,,,,,,29.0,16,20,3.0,378.0,235,211,13,30.0,14.0,36.1027239829,-86.8331193121
Charter,KA @ The Crossings MS,37013,,,,,,17.0,55.0,54.0,45.0,,,,,,4.0,67,62,,38.0,78,93,59,18.0,87.0,36.0450664576,-86.6515834105
Charter,KIPP Academy Nashville,37207,,,,,,100.0,95.0,91.0,91.0,,,,,,3.0,194,166,,14.0,207,170,213,51.0,125.0,36.1945359149,-86.7694392501
Charter,KIPP Academy Nashville Elementary,37206,82.0,87.0,88.0,81.0,73.0,,,,,,,,,1.0,4.0,372,14,,20.0,219,192,349,46.0,9.0,36.1674762595,-86.7519101749
Charter,KIPP Nashville College Prep,37207,,,,,,95.0,88.0,84.0,89.0,,,,,1.0,3.0,296,46,,10.0,179,177,177,52.0,38.0,36.2375074649,-86.8037065355
Charter,KIPP Nashville College Prep Elementary,37207,81.0,79.0,84.0,86.0,,,,,,,,,,,,297,25,,8.0,167,163,222,33.0,18.0,36.2382525836,-86.80366465659999
Charter,KIPP Nashville Collegiate High School,37207,,,,,,,,,,137.0,121.0,98.0,66.0,,4.0,272,136,,10.0,208,214,177,59.0,60.0,36.1947984072,-86.7691857847
Charter,Knowledge Academies High School,37013,,,,,,,,,,36.0,38.0,33.0,35.0,1.0,4.0,53,54,,30.0,71,71,36,23.0,35.0,36.0452120214,-86.65187296149999
Charter,Knowledge Academy,37013,,,,,,18.0,42.0,49.0,39.0,,,,,1.0,,44,78,,25.0,84,64,43,31.0,70.0,36.0454015353,-86.6519937155
Elementary School,Lakeview Elementary,37217,105.0,100.0,91.0,107.0,102.0,,,,,,,,,,18.0,164,234,,141.0,296,261,244,76.0,243.0,36.0788149596,-86.6300723113
Charter,LEAD Academy,37208,,,,,,,,,,135.0,131.0,101.0,70.0,1.0,3.0,183,199,,51.0,203,234,206,49.0,173.0,36.147885475500004,-86.7639512965
Charter,LEAD Cameron,37210,,,,,,181.0,178.0,188.0,158.0,,,,,,3.0,155,505,,42.0,375,330,345,77.0,486.0,36.148592789,-86.7639990186
Charter,LEAD Southeast,37211,,,,,,150.0,128.0,126.0,121.0,110.0,91.0,66.0,,2.0,62.0,140,365,,223.0,390,402,275,74.0,471.0,36.0923357845,-86.70367086270001
Charter,Liberty Collegiate Academy,37216,,,,,,100.0,106.0,118.0,94.0,,,,,1.0,1.0,126,266,,24.0,199,219,181,51.0,202.0,36.2120626994,-86.7329249332
Elementary School,Lockeland Elementary,37206,61.0,57.0,59.0,58.0,58.0,,,,,,,,,,5.0,14,8,1.0,265.0,145,148,9,23.0,,36.176225080500004,-86.73952049479999
Middle School,Madison Middle,37115,,,,,,144.0,158.0,140.0,130.0,,,,,,,344,151,,77.0,310,262,350,79.0,133.0,36.2638940195,-86.7162084879
High School,Maplewood High,37216,,,,,,,,,,216.0,194.0,202.0,149.0,,11.0,529,171,,50.0,385,376,465,125.0,167.0,36.232751980100005,-86.7503393689
Middle School,Margaret Allen Middle,37210,,,,,,108.0,112.0,141.0,135.0,,,,,1.0,11.0,208,200,1.0,75.0,256,240,248,51.0,244.0,36.1460623437,-86.721646171
High School,Martin Luther King Jr School,37203,,,,,,,,154.0,144.0,266.0,248.0,226.0,230.0,,125.0,492,111,1.0,539.0,635,633,129,24.0,23.0,36.1616756426,-86.8004738094
Elementary School,May Werthan Shayne Elementary School,37211,156.0,156.0,131.0,159.0,144.0,,,,,,,,,,78.0,197,77,4.0,418.0,392,382,183,77.0,164.0,36.0210311721,-86.71463119159999
Elementary School,McGavock Elementary,37214,54.0,48.0,59.0,50.0,51.0,,,,,,,,,,9.0,82,115,,76.0,146,136,132,29.0,102.0,36.1605589982,-86.68103494280001
High School,McGavock High,37214,,,,,,,,,,620.0,554.0,569.0,505.0,4.0,56.0,929,428,5.0,826.0,1111,1137,810,283.0,247.0,36.1854431861,-86.67784935379999
Middle School,McMurray Middle,37211,,,,,,200.0,193.0,203.0,208.0,,,,,1.0,86.0,136,506,,75.0,442,362,386,93.0,552.0,36.0563796098,-86.7236924979
Middle School,Meigs Middle,37206,,,,,,171.0,170.0,174.0,175.0,,,,,1.0,67.0,183,53,,386.0,333,357,58,23.0,25.0,36.1763639882,-86.76088018799999
Non-Traditional,Metro Nashville Virtual School,37209,,,,,,,3.0,9.0,83.0,21.0,39.0,96.0,149.0,2.0,15.0,218,30,,135.0,164,236,126,39.0,10.0,36.1501214104,-86.8453830588
High School,Middle College High,37209,,,,,,,,,,70.0,56.0,,49.0,1.0,9.0,77,21,,67.0,85,90,34,10.0,12.0,36.1346991446,-86.8571169258
Middle School,Moses McKissack Middle,37209,,,,,,92.0,63.0,81.0,68.0,,,,,,,268,22,,14.0,162,142,245,76.0,20.0,36.159898939099996,-86.8319415791
Elementary School,Mt. View Elementary,37013,130.0,116.0,132.0,129.0,142.0,,,,,,,,,1.0,33.0,247,216,2.0,205.0,343,361,250,54.0,251.0,36.0418590581,-86.6045976768
Special Education,Murrell School,37210,3.0,1.0,9.0,11.0,9.0,11.0,2.0,4.0,1.0,,,,,,,34,6,,11.0,43,8,36,45.0,4.0,36.137548849,-86.7900214161
Elementary School,Napier Elementary,37210,46.0,60.0,47.0,47.0,50.0,,,,,,,,,2.0,,270,17,,8.0,144,153,267,46.0,11.0,36.1500211684,-86.75639911180001
Charter,Nashville Academy of Computer Science,37207,,,,,,41.0,54.0,57.0,65.0,,,,,3.0,,162,32,,20.0,126,91,124,51.0,24.0,36.234964271399996,-86.78246535
Non-Traditional,Nashville Big Picture High School,37209,,,,,,,,,,48.0,30.0,44.0,24.0,,1.0,98,14,,33.0,59,87,43,21.0,3.0,36.1430883067,-86.8557148572
Charter,Nashville Classical,37206,70.0,64.0,65.0,64.0,64.0,61.0,52.0,,,,,,,1.0,4.0,287,35,,113.0,227,213,149,55.0,17.0,36.1799726463,-86.7460731124
Charter,Nashville Prep,37209,,,,,,64.0,74.0,78.0,68.0,,,,,1.0,7.0,148,113,1.0,14.0,144,140,153,42.0,90.0,36.1623058663,-86.85533178680001
High School,Nashville School Of The Arts,37210,,,,,,,,,,167.0,138.0,129.0,129.0,,16.0,232,39,,276.0,168,395,81,49.0,8.0,36.1329133192,-86.7405001865
Charter,Neelys Bend College Prep,37115,,,,,,114.0,143.0,121.0,125.0,,,,,,3.0,206,221,,73.0,282,221,259,9.0,181.0,36.2419079199,-86.674230711
Elementary School,Neelys Bend Elementary,37115,57.0,52.0,60.0,51.0,60.0,,,,,,,,,,,103,144,,51.0,153,146,160,31.0,97.0,36.2399690605,-86.6735175002
Elementary School,Norman Binkley Elementary,37211,113.0,140.0,107.0,114.0,123.0,,,,,,,,,,46.0,79,331,2.0,174.0,304,328,281,60.0,346.0,36.076976208000005,-86.7484948034
Elementary School,Old Center Elementary,37072,56.0,60.0,62.0,70.0,72.0,,,,,,,,,,3.0,171,126,,59.0,173,186,174,48.0,83.0,36.291209723899996,-86.7379489567
Elementary School,Paragon Mills Elementary,37211,101.0,113.0,115.0,105.0,97.0,,,,,,,,,,60.0,160,313,,81.0,322,292,318,58.0,313.0,36.087419407,-86.7070560977
Elementary School,Park Avenue Elementary,37209,68.0,59.0,64.0,60.0,59.0,,,,,,,,,1.0,,316,21,,20.0,173,185,262,45.0,17.0,36.1510157044,-86.8296779019
High School,Pearl-Cohn High,37208,,,,,,,,,,176.0,153.0,134.0,142.0,,2.0,569,22,,12.0,285,320,430,127.0,20.0,36.1645403992,-86.815136164
Elementary School,Pennington Elementary,37214,53.0,49.0,50.0,61.0,61.0,,,,,,,,,4.0,5.0,54,64,,167.0,167,127,83,28.0,36.0,36.2033663873,-86.6814273247
Elementary School,Percy Priest Elementary,37215,109.0,88.0,105.0,101.0,99.0,,,,,,,,,3.0,28.0,17,21,2.0,431.0,261,241,7,29.0,6.0,36.0615871471,-86.8336952185
Charter,Purpose Prep,37228,82.0,98.0,67.0,64.0,55.0,,,,,,,,,2.0,,329,9,,26.0,173,193,152,19.0,20.0,36.1942880381,-86.7946999618
Charter,RePublic High School,37207,,,,,,,,,,224.0,181.0,101.0,104.0,1.0,4.0,338,213,,54.0,304,306,229,82.0,95.0,36.2420998862,-86.77930926149999
Elementary School,Robert Churchwell Elementary,37208,55.0,47.0,58.0,50.0,59.0,,,,,,,,,1.0,,273,9,,2.0,141,144,242,39.0,12.0,36.1753538423,-86.8094236992
Elementary School,Robert E. Lillard Elementary,37218,42.0,47.0,46.0,46.0,56.0,,,,,,,,,,,225,6,,6.0,118,119,174,33.0,5.0,36.220572338800004,-86.8269077667
Charter,Rocketship Nashville Northeast Elementary,37207,123.0,106.0,73.0,88.0,89.0,,,,,,,,,4.0,,347,112,,16.0,232,247,358,65.0,85.0,36.2136492726,-86.7654223968
Charter,Rocketship United,37217,102.0,114.0,107.0,110.0,113.0,,,,,,,,,1.0,3.0,236,254,,52.0,246,300,261,49.0,273.0,36.1304768556,-86.72486617950001
Middle School,Rose Park Middle,37203,,,,,,115.0,116.0,109.0,102.0,,,,,,16.0,283,36,,107.0,226,216,95,32.0,48.0,36.1424058913,-86.78131451649999
Elementary School,Rosebank Elementary,37206,74.0,69.0,49.0,47.0,34.0,,,,,,,,,,7.0,187,25,,95.0,158,156,152,40.0,10.0,36.1839805189,-86.71777697030001
Elementary School,Ross Early Learning Center,37206,,,,,,,,,,,,,,,4.0,109,24,,98.0,122,113,73,47.0,,36.1798601253,-86.7545481099
Elementary School,Ruby Major Elementary,37076,88.0,88.0,80.0,101.0,82.0,,,,,,,,,3.0,15.0,223,72,1.0,158.0,251,222,173,60.0,61.0,36.1561669093,-86.5786577126
Elementary School,Shwab Elementary,37207,59.0,48.0,56.0,68.0,60.0,,,,,,,,,,1.0,100,203,,36.0,190,150,169,50.0,153.0,36.1999066318,-86.77079229120001
Elementary School,Smith Springs Elementary School,37013,114.0,115.0,101.0,105.0,109.0,,,,,,,,,,18.0,254,197,,193.0,354,308,242,102.0,128.0,36.0823638291,-86.59548477850001
Charter,Smithson Craighead Academy,37115,53.0,39.0,33.0,36.0,43.0,,,,,,,,,,,97,93,1.0,13.0,101,103,105,29.0,62.0,36.2510250701,-86.69661996129999
Elementary School,Stanford Elementary,37214,60.0,65.0,57.0,55.0,53.0,,,,,,,,,5.0,23.0,108,41,1.0,225.0,213,190,66,39.0,23.0,36.176076278400004,-86.6823175115
Charter,STEM Prep Academy,37210,,,,,,135.0,128.0,128.0,126.0,,,,,1.0,10.0,73,270,,163.0,272,245,211,45.0,359.0,36.1351446302,-86.7386061567
Charter,STEM Prep High School,37210,,,,,,,,,,149.0,129.0,112.0,99.0,2.0,12.0,93,270,,112.0,261,228,166,35.0,195.0,36.1354168461,-86.7386223689
High School,Stratford STEM Magnet School,37216,,,,,,71.0,85.0,81.0,79.0,170.0,172.0,161.0,141.0,1.0,25.0,658,106,,170.0,546,414,598,164.0,131.0,36.1975898577,-86.7180671344
Elementary School,Stratton Elementary,37115,88.0,98.0,89.0,112.0,97.0,,,,,,,,,1.0,6.0,196,219,,82.0,241,263,280,59.0,192.0,36.2656026682,-86.71768232870001
Charter,Strive Collegiate Academy,37214,,,,,,99.0,107.0,93.0,80.0,,,,,,11.0,162,108,1.0,97.0,196,183,118,46.0,104.0,36.1788359554,-86.6432213808
Elementary School,Sylvan Park Elementary,37209,90.0,90.0,81.0,90.0,74.0,,,,,,,,,,10.0,132,20,3.0,260.0,229,196,65,59.0,9.0,36.1442237082,-86.84459504360001
Non-Traditional,The Academy at Hickory Hollow,37013,,,,,,,,,,,,,50.0,,,18,19,,13.0,28,22,22,5.0,11.0,36.0503997998,-86.6548197259
Non-Traditional,The Academy at Old Cockrill,37209,,,,,,,,,,,,,83.0,,1.0,54,8,1.0,19.0,36,47,47,10.0,6.0,36.1547218751,-86.8455535663
Non-Traditional,The Academy at Opry Mills,37214,,,,,,,,,,,,,57.0,,2.0,20,14,,21.0,26,31,22,2.0,11.0,36.2027005721,-86.69207923530001
Non-Traditional - Hybrid,The Cohn Learning Center,37209,,,,,,,,,,,11.0,42.0,,,,39,11,,3.0,25,28,41,9.0,2.0,36.1507089234,-86.8451990752
Elementary School,Thomas A. Edison Elementary,37013,154.0,133.0,158.0,170.0,157.0,,,,,,,,,2.0,18.0,286,238,1.0,260.0,428,377,327,68.0,340.0,36.0628845281,-86.6046383659
Middle School,Thurgood Marshall Middle,37013,,,,,,226.0,250.0,249.0,242.0,,,,,2.0,62.0,394,343,,166.0,502,465,382,118.0,375.0,36.0223005992,-86.6612707661
Elementary School,Tom Joy Elementary,37207,72.0,59.0,62.0,67.0,72.0,,,,,,,,,,3.0,199,116,1.0,52.0,190,181,265,41.0,91.0,36.2086474873,-86.75662302379999
Alternative Learning Center,Transitions at Bass,37209,,,,,,,,,,,3.0,3.0,,,,4,1,,1.0,3,3,6,,,36.1549780692,-86.8520459267
Elementary School,Tulip Grove Elementary,37076,92.0,119.0,86.0,102.0,108.0,,,,,,,,,5.0,18.0,210,139,1.0,180.0,298,255,224,99.0,90.0,36.1984960718,-86.610888928
Elementary School,Tusculum Elementary,37211,153.0,146.0,131.0,134.0,146.0,,,,,,,,,1.0,86.0,120,481,,85.0,392,381,388,53.0,514.0,36.0622421154,-86.71899466059999
Middle School,Two Rivers Middle,37214,,,,,,90.0,126.0,86.0,108.0,,,,,1.0,7.0,175,111,1.0,115.0,201,209,202,55.0,115.0,36.194467241,-86.6739737732
Elementary School,Una Elementary,37217,126.0,131.0,158.0,145.0,127.0,,,,,,,,,,21.0,201,271,,234.0,373,354,280,56.0,350.0,36.095030361300005,-86.6528803773
Charter,Valor Flagship Academy,37211,,,,,,124.0,128.0,125.0,123.0,237.0,206.0,,,,57.0,149,189,4.0,544.0,468,475,252,87.0,231.0,36.0708005834,-86.725494633
Charter,Valor Voyager Academy,37211,,,,,,123.0,127.0,121.0,126.0,,,,,,24.0,76,143,,254.0,242,255,145,60.0,165.0,36.0706506329,-86.72505119790002
Adult,W. A. Bass Adult Program,37209,,,,,,,,,,31.0,31.0,101.0,99.0,1.0,6.0,161,48,,46.0,125,137,127,32.0,84.0,36.1540731279,-86.8518765886
Alternative Learning Center,W.A. Bass Alternative Learning Center,37209,,,,,,,,,,19.0,23.0,32.0,19.0,1.0,,77,9,,6.0,58,35,65,23.0,6.0,36.1545841136,-86.85100165829999
Elementary School,Warner Elementary,37206,43.0,31.0,46.0,28.0,35.0,,,,,,,,,1.0,1.0,176,14,1.0,21.0,118,96,181,37.0,24.0,36.1720753383,-86.7600969964
Elementary School,Waverly-Belmont Elementary School,37204,95.0,116.0,91.0,106.0,86.0,,,,,,,,,1.0,17.0,199,19,,258.0,251,243,107,62.0,11.0,36.1264618728,-86.7866295627
Middle School,West End Middle,37205,,,,,,125.0,138.0,136.0,104.0,,,,,1.0,23.0,203,28,1.0,247.0,261,242,112,113.0,27.0,36.131974711999995,-86.8243226532
Elementary School,Westmeade Elementary,37205,72.0,101.0,80.0,88.0,81.0,,,,,,,,,2.0,24.0,143,74,1.0,178.0,238,184,132,48.0,63.0,36.0919967834,-86.8941366526
High School,Whites Creek High School,37189,,,,,,,,,,137.0,118.0,140.0,129.0,,,431,30,1.0,62.0,270,254,305,100.0,27.0,36.2766453173,-86.8188329872
Middle School,William Henry Oliver Middle,37211,,,,,,231.0,271.0,244.0,239.0,,,,,2.0,73.0,312,158,3.0,437.0,487,498,252,112.0,231.0,36.020173975700004,-86.7122071016
Middle School,Wright Middle,37211,,,,,,188.0,216.0,213.0,193.0,,,,,,33.0,138,534,1.0,104.0,443,367,400,75.0,536.0,36.1001088774,-86.73413342280001
